{
  "links" : {
    "next" : "https://api.nasa.gov/neo/rest/v1/feed?start_date=2001-06-16&end_date=2001-06-16&detailed=true&api_key=t0TVs3DtDT2H8Oy2Zy8m2eVrNsAVKAexjcZXUckd",
    "prev" : "https://api.nasa.gov/neo/rest/v1/feed?start_date=2001-06-14&end_date=2001-06-14&detailed=true&api_key=t0TVs3DtDT2H8Oy2Zy8m2eVrNsAVKAexjcZXUckd",
    "self" : "https://api.nasa.gov/neo/rest/v1/feed?start_date=2001-06-15&end_date=2001-06-15&detailed=true&api_key=t0TVs3DtDT2H8Oy2Zy8m2eVrNsAVKAexjcZXUckd"
  },
  "element_count" : 5,
  "near_earth_objects" : {
    "2001-06-15" : [ {
      "links" : {
        "self" : "https://api.nasa.gov/neo/rest/v1/neo/2329915?api_key=t0TVs3DtDT2H8Oy2Zy8m2eVrNsAVKAexjcZXUckd"
      },
      "neo_reference_id" : "2329915",
      "name" : "329915 (2005 MB)",
      "nasa_jpl_url" : "http://ssd.jpl.nasa.gov/sbdb.cgi?sstr=2329915",
      "absolute_magnitude_h" : 17.1,
      "estimated_diameter" : {
        "kilometers" : {
          "estimated_diameter_min" : 1.0105434154,
          "estimated_diameter_max" : 2.2596437711
        },
        "meters" : {
          "estimated_diameter_min" : 1010.5434154201,
          "estimated_diameter_max" : 2259.643771094
        },
        "miles" : {
          "estimated_diameter_min" : 0.6279223726,
          "estimated_diameter_max" : 1.4040771097
        },
        "feet" : {
          "estimated_diameter_min" : 3315.4312590467,
          "estimated_diameter_max" : 7413.5296699562
        }
      },
      "is_potentially_hazardous_asteroid" : false,
      "close_approach_data" : [ {
        "close_approach_date" : "2001-06-15",
        "epoch_date_close_approach" : 992588400000,
        "relative_velocity" : {
          "kilometers_per_second" : "23.7992657829",
          "kilometers_per_hour" : "85677.3568185437",
          "miles_per_hour" : "53236.5776298334"
        },
        "miss_distance" : {
          "astronomical" : "0.3311088144",
          "lunar" : "128.8013305664",
          "kilometers" : "49533172",
          "miles" : "30778486"
        },
        "orbiting_body" : "Earth"
      } ],
      "orbital_data" : {
        "orbit_id" : "35",
        "orbit_determination_date" : "2017-04-06 09:23:34",
        "orbit_uncertainty" : "2",
        "minimum_orbit_intersection" : ".0680902",
        "jupiter_tisserand_invariant" : "5.679",
        "epoch_osculation" : "2458000.5",
        "eccentricity" : ".7927778397618304",
        "semi_major_axis" : ".9853282019278486",
        "inclination" : "41.38610419549639",
        "ascending_node_longitude" : "88.64258597980904",
        "orbital_period" : "357.2479923169265",
        "perihelion_distance" : ".2041818385470802",
        "perihelion_argument" : "42.82582408472616",
        "aphelion_distance" : "1.766474565308617",
        "perihelion_time" : "2458091.013596583459",
        "mean_anomaly" : "268.7891451573563",
        "mean_motion" : "1.007703353810963",
        "equinox" : "J2000"
      }
    }, {
      "links" : {
        "self" : "https://api.nasa.gov/neo/rest/v1/neo/3413165?api_key=t0TVs3DtDT2H8Oy2Zy8m2eVrNsAVKAexjcZXUckd"
      },
      "neo_reference_id" : "3413165",
      "name" : "(2008 LG2)",
      "nasa_jpl_url" : "http://ssd.jpl.nasa.gov/sbdb.cgi?sstr=3413165",
      "absolute_magnitude_h" : 25.2,
      "estimated_diameter" : {
        "kilometers" : {
          "estimated_diameter_min" : 0.0242412481,
          "estimated_diameter_max" : 0.0542050786
        },
        "meters" : {
          "estimated_diameter_min" : 24.2412481101,
          "estimated_diameter_max" : 54.2050786336
        },
        "miles" : {
          "estimated_diameter_min" : 0.0150628086,
          "estimated_diameter_max" : 0.0336814639
        },
        "feet" : {
          "estimated_diameter_min" : 79.5316564495,
          "estimated_diameter_max" : 177.8381901842
        }
      },
      "is_potentially_hazardous_asteroid" : false,
      "close_approach_data" : [ {
        "close_approach_date" : "2001-06-15",
        "epoch_date_close_approach" : 992588400000,
        "relative_velocity" : {
          "kilometers_per_second" : "19.5828327184",
          "kilometers_per_hour" : "70498.1977864128",
          "miles_per_hour" : "43804.8385078963"
        },
        "miss_distance" : {
          "astronomical" : "0.4733945439",
          "lunar" : "184.1504821777",
          "kilometers" : "70818816",
          "miles" : "44004772"
        },
        "orbiting_body" : "Earth"
      } ],
      "orbital_data" : {
        "orbit_id" : "22",
        "orbit_determination_date" : "2017-04-06 09:03:18",
        "orbit_uncertainty" : "2",
        "minimum_orbit_intersection" : ".00304526",
        "jupiter_tisserand_invariant" : "6.885",
        "epoch_osculation" : "2458000.5",
        "eccentricity" : ".2286011453912708",
        "semi_major_axis" : ".853347803044031",
        "inclination" : "3.068253059495902",
        "ascending_node_longitude" : "86.28144053390724",
        "orbital_period" : "287.9304121895842",
        "perihelion_distance" : ".6582715178510409",
        "perihelion_argument" : "336.5408533572274",
        "aphelion_distance" : "1.048424088237021",
        "perihelion_time" : "2457921.577541957774",
        "mean_anomaly" : "98.67691529748473",
        "mean_motion" : "1.250302103422692",
        "equinox" : "J2000"
      }
    }, {
      "links" : {
        "self" : "https://api.nasa.gov/neo/rest/v1/neo/3550129?api_key=t0TVs3DtDT2H8Oy2Zy8m2eVrNsAVKAexjcZXUckd"
      },
      "neo_reference_id" : "3550129",
      "name" : "(2010 VE)",
      "nasa_jpl_url" : "http://ssd.jpl.nasa.gov/sbdb.cgi?sstr=3550129",
      "absolute_magnitude_h" : 19.7,
      "estimated_diameter" : {
        "kilometers" : {
          "estimated_diameter_min" : 0.3051792326,
          "estimated_diameter_max" : 0.6824015094
        },
        "meters" : {
          "estimated_diameter_min" : 305.1792325939,
          "estimated_diameter_max" : 682.4015094011
        },
        "miles" : {
          "estimated_diameter_min" : 0.1896295249,
          "estimated_diameter_max" : 0.4240245083
        },
        "feet" : {
          "estimated_diameter_min" : 1001.2442334633,
          "estimated_diameter_max" : 2238.8501681036
        }
      },
      "is_potentially_hazardous_asteroid" : false,
      "close_approach_data" : [ {
        "close_approach_date" : "2001-06-15",
        "epoch_date_close_approach" : 992588400000,
        "relative_velocity" : {
          "kilometers_per_second" : "10.6351850739",
          "kilometers_per_hour" : "38286.6662658913",
          "miles_per_hour" : "23789.8454917145"
        },
        "miss_distance" : {
          "astronomical" : "0.1601336811",
          "lunar" : "62.2919998169",
          "kilometers" : "23955656",
          "miles" : "14885355"
        },
        "orbiting_body" : "Earth"
      } ],
      "orbital_data" : {
        "orbit_id" : "23",
        "orbit_determination_date" : "2017-04-06 08:56:02",
        "orbit_uncertainty" : "2",
        "minimum_orbit_intersection" : ".127904",
        "jupiter_tisserand_invariant" : "4.441",
        "epoch_osculation" : "2458000.5",
        "eccentricity" : ".439906401914323",
        "semi_major_axis" : "1.490269799072045",
        "inclination" : "8.941631049001764",
        "ascending_node_longitude" : "289.7278184825839",
        "orbital_period" : "664.5012120755462",
        "perihelion_distance" : ".8346905738806808",
        "perihelion_argument" : "5.219833941339707",
        "aphelion_distance" : "2.14584902426341",
        "perihelion_time" : "2458079.107654798966",
        "mean_anomaly" : "317.4135378335313",
        "mean_motion" : ".5417597341554167",
        "equinox" : "J2000"
      }
    } ]
  }
}